{"ICAO": "GCGM", "IATA": "GMZ", "name": "La Gomera", "regionName": "Canary Islands", "elevation": 715.0000010868, "lat": 28.0296, "lon": -17.2146, "magneticVariation": -4.661578430949613, "timezone": {"name": "Atlantic/Canary", "offset": 0}, "times": {"sunrise": "2023-12-04T07:46:23.202Z", "sunset": "2023-12-04T18:14:23.335Z", "dawn": "2023-12-04T07:20:52.317Z", "dusk": "2023-12-04T18:39:54.219Z"}, "runwayCount": 1, "runways": [{"ident": "09", "width": 100.00000015200001, "length": 4921.522317192, "bearing": 81.165, "surface": "ASPHALT", "markings": ["PREC-APP"], "lighting": ["EDGE", "THRESHOLD", "REIL-OMNI"], "thresholdOffset": 0, "overrunLength": 193.5695541, "ends": [{"ident": "09", "lat": 28.0286, "lon": -17.2221}, {"ident": "27", "lat": 28.0307, "lon": -17.2071}], "navaids": []}, {"ident": "27", "width": 100.00000015200001, "length": 4921.522317192, "bearing": 261.172, "surface": "ASPHALT", "markings": ["PREC-APP"], "lighting": ["EDGE", "THRESHOLD", "REIL-OMNI"], "thresholdOffset": 0, "overrunLength": 193.5695541, "ends": [{"ident": "27", "lat": 28.0307, "lon": -17.2071}, {"ident": "09", "lat": 28.0286, "lon": -17.2221}], "navaids": []}], "frequencies": [{"type": "REC", "frequency": 118370000, "name": "La Gomera Infomation"}], "weather": {"METAR": "GCGM 041930Z AUTO VRB01KT CAVOK 19/15 Q1018 RMK R09/VRB02KT ARP/VRB01KT", "TAF": "TAF GCGM 041400Z 0415/0515 13005KT 9999 SCT025 TX24/0514Z TN18/0506Z TEMPO 0511/0515 26012KT"}}