{"ICAO": "LESB", "IATA": null, "name": "Son Bonet", "regionName": "Spain", "elevation": 153.00000023256, "lat": 39.5989, "lon": 2.70265, "magneticVariation": 1.6239204777471201, "timezone": {"name": "Europe/Madrid", "offset": 3600}, "times": {"sunrise": "2023-12-04T06:54:36.254Z", "sunset": "2023-12-04T16:26:47.375Z", "dawn": "2023-12-04T06:24:41.619Z", "dusk": "2023-12-04T16:56:42.010Z"}, "runwayCount": 1, "runways": [{"ident": "05", "width": 75.984252084, "length": 4926.83727783, "bearing": 51.0653, "surface": "ASPHALT", "markings": ["VISUAL"], "lighting": ["EDGE", "THRESHOLD"], "thresholdOffset": 823.4908149, "overrunLength": 0, "ends": [{"ident": "05", "lat": 39.5947, "lon": 2.69583}, {"ident": "23", "lat": 39.6032, "lon": 2.70946}], "navaids": []}, {"ident": "23", "width": 75.984252084, "length": 4926.83727783, "bearing": 231.074, "surface": "ASPHALT", "markings": ["VISUAL"], "lighting": ["EDGE", "THRESHOLD"], "thresholdOffset": 820.209975, "overrunLength": 0, "ends": [{"ident": "23", "lat": 39.6032, "lon": 2.70946}, {"ident": "05", "lat": 39.5947, "lon": 2.69583}], "navaids": []}], "frequencies": [{"type": "COM", "frequency": 123500000, "name": "Son Bonet Radio"}], "weather": {"METAR": "LESB 041930Z AUTO VRB03KT CAVOK 13/08 Q1015", "TAF": null}}